NORAD_CAT_ID,OBJECT_NAME,OBJECT_TYPE,EPOCH,MEAN_MOTION,ECCENTRICITY,INCLINATION,RA_OF_ASC_NODE,ARG_OF_PERICENTER,MEAN_ANOMALY,BSTAR,MEAN_MOTION_DOT,MEAN_MOTION_DDOT,TLE_LINE0,TLE_LINE1,TLE_LINE2,SEMIMAJOR_AXIS,PERIOD,APOGEE,PERIGEE,DECAYED
49769.0,STARLINK-3208,PAYLOAD,2022-10-02 00:06:22,15.08860801,0.0001548,53.2167,11.6287,67.0622,293.0534,0.00078284,0.000122,0.0,0 STARLINK-3208,1 49769U 21115AX  22275.00443192  .00012200  00000-0  78284-3 0  9993,2 49769  53.2167  11.6287 0001548  67.0622 293.0534 15.08860801 47371,6917.816999999999,95.436,540.753,538.611,0.0
49769.0,STARLINK-3208,PAYLOAD,2022-10-02 12:49:28,15.08828532,0.0001652,53.217,9.2521,57.7017,302.4135,-0.00018267,-3.193e-05,0.0,0 STARLINK-3208,1 49769U 21115AX  22275.53435980 -.00003193  00000-0 -18267-3 0  9995,2 49769  53.2170   9.2521 0001652  57.7017 302.4135 15.08828532 46342,6917.915,95.438,540.923,538.638,0.0
49769.0,STARLINK-3208,PAYLOAD,2022-10-02 17:35:38,15.08832273,0.0001614,53.217,8.36,56.5023,303.6123,0.00028987,4.327e-05,0.0,0 STARLINK-3208,1 49769U 21115AX  22275.73308168  .00004327  00000-0  28987-3 0  9992,2 49769  53.2170   8.3600 0001614  56.5023 303.6123 15.08832273 46372,6917.904,95.438,540.886,538.6519999999998,0.0
49769.0,STARLINK-3208,PAYLOAD,2022-10-02 23:57:11,15.0884059,0.0001671,53.2171,7.1704,57.7492,302.3661,0.0010385,0.00016279,0.0,0 STARLINK-3208,1 49769U 21115AX  22275.99804429  .00016279  00000-0  10385-2 0  9992,2 49769  53.2171   7.1704 0001671  57.7492 302.3661 15.08840590 47523,6917.879,95.438,540.9,538.5880000000002,0.0
49769.0,STARLINK-3208,PAYLOAD,2022-10-03 12:40:15,15.08858185,0.0001729,53.2167,4.7912,58.5779,301.5382,0.0014324,0.00022594,0.0,0 STARLINK-3208,1 49769U 21115AX  22276.52796258  .00022594  00000-0  14324-2 0  9996,2 49769  53.2167   4.7912 0001729  58.5779 301.5382 15.08858185 46498,6917.825,95.436,540.886,538.494,0.0
49769.0,STARLINK-3208,PAYLOAD,2022-10-04 12:31:02,15.08859649,0.0001639,53.2186,0.3301,57.9478,302.1673,0.00045372,6.944e-05,0.0,0 STARLINK-3208,1 49769U 21115AX  22277.52155112  .00006944  00000-0  45372-3 0  9994,2 49769  53.2186   0.3301 0001639  57.9478 302.1673 15.08859649 46645,6917.82,95.436,540.819,538.5509999999998,0.0
49769.0,STARLINK-3208,PAYLOAD,2022-10-05 06:00:16,15.08845857,0.0001747,53.219,357.0627,59.8206,300.2959,-7.3658e-05,-1.46e-05,0.0,0 STARLINK-3208,1 49769U 21115AX  22278.25019067 -.00001460  00000-0 -73658-4 0  9992,2 49769  53.2190 357.0627 0001747  59.8206 300.2959 15.08845857 47860,6917.861999999999,95.437,540.936,538.519,0.0
49769.0,STARLINK-3208,PAYLOAD,2022-10-05 12:21:49,15.08836996,0.000181,53.2175,355.8692,61.3914,298.726,-0.00016278,-2.878e-05,0.0,0 STARLINK-3208,1 49769U 21115AX  22278.51515400 -.00002878  00000-0 -16278-3 0  9991,2 49769  53.2175 355.8692 0001810  61.3914 298.7260 15.08836996 46797,6917.89,95.438,541.007,538.502,0.0
49769.0,STARLINK-3208,PAYLOAD,2022-10-06 12:12:36,15.08844242,0.0001612,53.2184,351.4126,61.1101,299.0053,8.0147e-05,9.88e-06,0.0,0 STARLINK-3208,1 49769U 21115AX  22279.50875413  .00000988  00000-0  80147-4 0  9999,2 49769  53.2184 351.4126 0001612  61.1101 299.0053 15.08844242 46941,6917.8669999999975,95.437,540.8480000000002,538.617,0.0
49769.0,STARLINK-3208,PAYLOAD,2022-10-06 15:23:22,15.08848075,0.0001678,53.2179,350.8159,58.2799,301.8356,0.00029616,4.429999999999999e-05,0.0,0 STARLINK-3208,1 49769U 21115AX  22279.64123304  .00004430  00000-0  29616-3 0  9998,2 49769  53.2179 350.8159 0001678  58.2799 301.8356 15.08848075 46964,6917.856,95.437,540.882,538.56,0.0
49769.0,STARLINK-3208,PAYLOAD,2022-10-07 08:52:37,15.08845282,0.0001715,53.218,347.5447,60.6225,299.4938,0.00027381,4.073e-05,0.0,0 STARLINK-3208,1 49769U 21115AX  22280.36987471  .00004073  00000-0  27381-3 0  9992,2 49769  53.2180 347.5447 0001715  60.6225 299.4938 15.08845282 48183,6917.864000000001,95.437,540.9159999999998,538.543,0.0
49769.0,STARLINK-3208,PAYLOAD,2022-10-07 10:28:00,15.0884644,0.0001792,53.218,347.2468,64.7861,295.3317,0.00028032,4.177e-05,0.0,0 STARLINK-3208,1 49769U 21115AX  22280.43611369  .00004177  00000-0  28032-3 0  9999,2 49769  53.2180 347.2468 0001792  64.7861 295.3317 15.08846440 47080,6917.861,95.437,540.965,538.486,0.0
49769.0,STARLINK-3208,PAYLOAD,2022-10-07 12:03:23,15.08848044,0.0001763,53.218,346.9497,63.8724,296.2449,0.00031448,4.722e-05,0.0,0 STARLINK-3208,1 49769U 21115AX  22280.50235199  .00004722  00000-0  31448-3 0  9991,2 49769  53.2180 346.9497 0001763  63.8724 296.2449 15.08848044 47093,6917.856,95.437,540.94,538.501,0.0
49769.0,STARLINK-3208,PAYLOAD,2022-10-08 03:57:14,15.08842179,0.0001893,53.2179,343.9801,60.2439,299.8741,8.150199999999999e-05,1.009e-05,0.0,0 STARLINK-3208,1 49769U 21115AX  22281.16475641  .00001009  00000-0  81502-4 0  9994,2 49769  53.2179 343.9801 0001893  60.2439 299.8741 15.08842179 48307,6917.874,95.437,541.048,538.429,0.0
49769.0,STARLINK-3208,PAYLOAD,2022-10-08 11:54:11,15.08835118,0.0001678,53.218,342.4896,56.5625,303.5527,-9.7524e-05,-1.84e-05,0.0,0 STARLINK-3208,1 49769U 21115AX  22281.49596067 -.00001840  00000-0 -97524-4 0  9992,2 49769  53.2180 342.4896 0001678  56.5625 303.5527 15.08835118 48358,6917.895,95.438,540.9209999999998,538.599,0.0
49769.0,STARLINK-3208,PAYLOAD,2022-10-08 16:40:20,15.08837845,0.0001597,53.2174,341.5968,58.3457,301.7691,-4.0421e-05,-9.31e-06,0.0,0 STARLINK-3208,1 49769U 21115AX  22281.69467943 -.00000931  00000-0 -40421-4 0  9998,2 49769  53.2174 341.5968 0001597  58.3457 301.7691 15.08837845 47275,6917.887,95.438,540.857,538.6469999999998,0.0
49769.0,STARLINK-3208,PAYLOAD,2022-10-09 10:09:35,15.08837794,0.0001732,53.2181,338.3267,58.6923,301.4239,2.9727e-05,1.85e-06,0.0,0 STARLINK-3208,1 49769U 21115AX  22282.42332182  .00000185  00000-0  29727-4 0  9991,2 49769  53.2181 338.3267 0001732  58.6923 301.4239 15.08837794 47381,6917.887,95.438,540.95,538.554,0.0
49769.0,STARLINK-3208,PAYLOAD,2022-10-09 13:20:21,15.08841534,0.0001646,53.218,337.7334,54.8992,305.2154,0.00015154,2.125e-05,0.0,0 STARLINK-3208,1 49769U 21115AX  22282.55580018  .00002125  00000-0  15154-3 0  9992,2 49769  53.2180 337.7334 0001646  54.8992 305.2154 15.08841534 47404,6917.876,95.437,540.879,538.602,0.0
49769.0,STARLINK-3208,PAYLOAD,2022-10-10 06:49:35,15.08836853,0.0001636999999999,53.2164,334.4601,49.2537,310.8597,0.00018208,2.611e-05,0.0,0 STARLINK-3208,1 49769U 21115AX  22283.28444355  .00002611  00000-0  18208-3 0  9999,2 49769  53.2164 334.4601 0001637  49.2537 310.8597 15.08836853 48626,6917.89,95.438,540.887,538.623,0.0
49769.0,STARLINK-3208,PAYLOAD,2022-10-10 11:35:45,15.08839947,0.0001702,53.2169,333.5686,50.9785,309.1358,0.00019061,2.747e-05,0.0,0 STARLINK-3208,1 49769U 21115AX  22283.48316233  .00002747  00000-0  19061-3 0  9992,2 49769  53.2169 333.5686 0001702  50.9785 309.1358 15.08839947 47544,6917.880999999999,95.438,540.923,538.568,0.0
49769.0,STARLINK-3208,PAYLOAD,2022-10-11 03:29:37,15.08830817,0.0001467,53.2176,330.595,47.7201,312.3915,5.1799e-05,5.36e-06,0.0,0 STARLINK-3208,1 49769U 21115AX  22284.14556808  .00000536  00000-0  51799-4 0  9999,2 49769  53.2176 330.5950 0001467  47.7201 312.3915 15.08830817 48754,6917.908,95.438,540.788,538.759,0.0
49769.0,STARLINK-3208,PAYLOAD,2022-10-11 13:01:57,15.08823016,0.0001547,53.2175,328.8103,38.5643,321.546,-0.00015117,-2.692e-05,0.0,0 STARLINK-3208,1 49769U 21115AX  22284.54302099 -.00002692  00000-0 -15117-3 0  9994,2 49769  53.2175 328.8103 0001547  38.5643 321.5460 15.08823016 48817,6917.932,95.439,540.868,538.727,0.0
49769.0,STARLINK-3208,PAYLOAD,2022-10-12 03:20:24,15.08829339,0.0001527,53.2175,326.1347,44.5445,315.5669,8.405e-06,-1.54e-06,0.0,0 STARLINK-3208,1 49769U 21115AX  22285.13917465 -.00000154  00000-0  84050-5 0  9993,2 49769  53.2175 326.1347 0001527  44.5445 315.5669 15.08829339 48901,6917.913000000001,95.438,540.8340000000002,538.722,0.0
49769.0,STARLINK-3208,PAYLOAD,2022-10-12 12:52:43,15.08829218,0.0001704,53.2177,324.3505,52.5463,307.5684,1.5291e-06,-2.64e-06,0.0,0 STARLINK-3208,1 49769U 21115AX  22285.53661793 -.00000264  00000-0  15291-5 0  9990,2 49769  53.2177 324.3505 0001704  52.5463 307.5684 15.08829218 47852,6917.913000000001,95.438,540.957,538.6,0.0
49769.0,STARLINK-3208,PAYLOAD,2022-10-13 09:32:44,15.08824862,0.0001669,53.2174,320.4848,46.0515,314.0615,0.00012086,1.635e-05,0.0,0 STARLINK-3208,1 49769U 21115AX  22286.39774244  .00001635  00000-0  12086-3 0  9990,2 49769  53.2174 320.4848 0001669  46.0515 314.0615 15.08824862 47983,6917.927,95.439,540.946,538.637,0.0
49769.0,STARLINK-3208,PAYLOAD,2022-10-13 19:05:03,15.08834945,0.000172,53.2181,318.7008,49.2546,310.8596,0.00014957,2.093e-05,0.0,0 STARLINK-3208,1 49769U 21115AX  22286.79517746  .00002093  00000-0  14957-3 0  9994,2 49769  53.2181 318.7008 0001720  49.2546 310.8596 15.08834945 49152,6917.896,95.438,540.951,538.571,0.0
49769.0,STARLINK-3208,PAYLOAD,2022-10-14 10:58:54,15.08840455,0.0001769,53.2181,315.7267,53.0558,307.0596,3.5096e-05,2.71e-06,0.0,0 STARLINK-3208,1 49769U 21115AX  22287.45757900  .00000271  00000-0  35096-4 0  9990,2 49769  53.2181 315.7267 0001769  53.0558 307.0596 15.08840455 48144,6917.879,95.438,540.9680000000002,538.52,0.0
49769.0,STARLINK-3208,PAYLOAD,2022-10-15 01:17:23,15.08840314,0.0001841,53.2178,313.0496,48.6439,311.4711,5.456600000000001e-05,5.8e-06,0.0,0 STARLINK-3208,1 49769U 21115AX  22288.05373881  .00000580  00000-0  54566-4 0  9995,2 49769  53.2178 313.0496 0001841  48.6439 311.4711 15.08840314 49349,6917.879,95.438,541.018,538.471,0.0
49769.0,STARLINK-3208,PAYLOAD,2022-10-15 09:14:18,15.08844234,0.0001813,53.2166,311.5648,45.6687,314.4453,0.00011583,1.556e-05,0.0,0 STARLINK-3208,1 49769U 21115AX  22288.38493263  .00001556  00000-0  11583-3 0  9993,2 49769  53.2166 311.5648 0001813  45.6687 314.4453 15.08844234 48282,6917.8669999999975,95.437,540.987,538.4780000000002,0.0
